XRISM                   
1 57800U 23137A   23264.50175881  .00004783  00000+0  38950-3 0  9997
2 57800  31.0037 284.7791 0009806  61.4450 298.7171 14.97934172  2090
